{
    "links": {
        "self": "http://www.neowsapp.com/rest/v1/neo/3648765?api_key=iIulBulltgU6a56xZRHN4H3l9WmuAYTsLGpBGhQ2"
    },
    "id": "3648765",
    "neo_reference_id": "3648765",
    "name": "(2013 TF4)",
    "designation": "2013 TF4",
    "nasa_jpl_url": "http://ssd.jpl.nasa.gov/sbdb.cgi?sstr=3648765",
    "absolute_magnitude_h": 24.7,
    "estimated_diameter": {
        "kilometers": {
            "estimated_diameter_min": 0.0305179233,
            "estimated_diameter_max": 0.0682401509
        },
        "meters": {
            "estimated_diameter_min": 30.5179232594,
            "estimated_diameter_max": 68.2401509401
        },
        "miles": {
            "estimated_diameter_min": 0.0189629525,
            "estimated_diameter_max": 0.0424024508
        },
        "feet": {
            "estimated_diameter_min": 100.1244233463,
            "estimated_diameter_max": 223.8850168104
        }
    },
    "is_potentially_hazardous_asteroid": false,
    "close_approach_data": [
        {
            "close_approach_date": "2013-09-23",
            "close_approach_date_full": "2013-Sep-23 01:19",
            "epoch_date_close_approach": 1379899140000,
            "relative_velocity": {
                "kilometers_per_second": "4.2795503273",
                "kilometers_per_hour": "15406.3811782431",
                "miles_per_hour": "9572.9261271145"
            },
            "miss_distance": {
                "astronomical": "0.0928460245",
                "lunar": "36.1171035305",
                "kilometers": "13889567.503167815",
                "miles": "8630577.041293247"
            },
            "orbiting_body": "Earth"
        },
        {
            "close_approach_date": "2025-06-05",
            "close_approach_date_full": "2025-Jun-05 05:04",
            "epoch_date_close_approach": 1749099840000,
            "relative_velocity": {
                "kilometers_per_second": "2.6046413731",
                "kilometers_per_hour": "9376.7089431687",
                "miles_per_hour": "5826.3222874928"
            },
            "miss_distance": {
                "astronomical": "0.0947917494",
                "lunar": "36.8739905166",
                "kilometers": "14180643.803813778",
                "miles": "8811443.4676270164"
            },
            "orbiting_body": "Mars"
        },
        {
            "close_approach_date": "2027-09-13",
            "close_approach_date_full": "2027-Sep-13 09:43",
            "epoch_date_close_approach": 1820828580000,
            "relative_velocity": {
                "kilometers_per_second": "6.1548055822",
                "kilometers_per_hour": "22157.3000960366",
                "miles_per_hour": "13767.6846068956"
            },
            "miss_distance": {
                "astronomical": "0.2317190132",
                "lunar": "90.1386961348",
                "kilometers": "34664670.813221884",
                "miles": "21539627.6375306392"
            },
            "orbiting_body": "Earth"
        },
        {
            "close_approach_date": "2143-12-09",
            "close_approach_date_full": "2143-Dec-09 03:59",
            "epoch_date_close_approach": 5488919940000,
            "relative_velocity": {
                "kilometers_per_second": "3.1989082177",
                "kilometers_per_hour": "11516.0695836619",
                "miles_per_hour": "7155.637792137"
            },
            "miss_distance": {
                "astronomical": "0.0864711279",
                "lunar": "33.6372687531",
                "kilometers": "12935896.550337573",
                "miles": "8037993.3896735874"
            },
            "orbiting_body": "Mars"
        }
    ],
    "orbital_data": {
        "orbit_id": "8",
        "orbit_determination_date": "2017-04-06 08:44:25",
        "first_observation_date": "2013-10-02",
        "last_observation_date": "2013-10-26",
        "data_arc_in_days": 24,
        "observations_used": 39,
        "orbit_uncertainty": "7",
        "minimum_orbit_intersection": ".0929744",
        "jupiter_tisserand_invariant": "4.859",
        "epoch_osculation": "2459000.5",
        "eccentricity": ".1856667923627415",
        "semi_major_axis": "1.344899019396825",
        "inclination": "7.690853337957699",
        "ascending_node_longitude": "4.325941125334261",
        "orbital_period": "569.6825834742397",
        "perihelion_distance": "1.09519593241362",
        "perihelion_argument": "354.8211692066448",
        "aphelion_distance": "1.59460210638003",
        "perihelion_time": "2458835.546263926068",
        "mean_anomaly": "104.2393548780499",
        "mean_motion": ".6319308513953873",
        "equinox": "J2000",
        "orbit_class": {
            "orbit_class_type": "AMO",
            "orbit_class_description": "Near-Earth asteroid orbits similar to that of 1221 Amor",
            "orbit_class_range": "1.017 AU < q (perihelion) < 1.3 AU"
        }
    },
    "is_sentry_object": false
}